SENTINEL-2A             
1 40697U 15028A   26194.85805090 -.00000105  00000+0 -23461-4 0  9996
2 40697  98.5684 269.3298 0001278  94.9725 265.1604 14.30813560577544
SENTINEL-2B             
1 42063U 17013A   26194.85086288 -.00000224  00000+0 -68802-4 0  9991
2 42063  98.5692 269.2478 0001226  90.0389 270.0934 14.30813774488456
SENTINEL-2C             
1 60989U 24157A   26194.74598275  .00000041  00000+0  32115-4 0  9990
2 60989  98.5685 269.1511 0000952 102.3663 257.7627 14.30815413 96783
